[{"OBJECT_NAME":"STARLINK-35229","OBJECT_ID":"2025-207J","EPOCH":"2025-12-04T03:44:33.292896","MEAN_MOTION":15.39399935,"ECCENTRICITY":0.00015365,"INCLINATION":97.6062,"RA_OF_ASC_NODE":43.5177,"ARG_OF_PERICENTER":88.9556,"MEAN_ANOMALY":271.1865,"EPHEMERIS_TYPE":0,"CLASSIFICATION_TYPE":"U","NORAD_CAT_ID":65600,"ELEMENT_SET_NO":999,"REV_AT_EPOCH":1382,"BSTAR":0.0024843968,"MEAN_MOTION_DOT":0.00098242,"MEAN_MOTION_DDOT":0},{"OBJECT_NAME":"STARLINK-35234","OBJECT_ID":"2025-207K","EPOCH":"2025-12-04T16:01:28.009920","MEAN_MOTION":15.39333819,"ECCENTRICITY":0.0001954,"INCLINATION":97.606,"RA_OF_ASC_NODE":44.0686,"ARG_OF_PERICENTER":90.3738,"MEAN_ANOMALY":269.7731,"EPHEMERIS_TYPE":0,"CLASSIFICATION_TYPE":"U","NORAD_CAT_ID":65601,"ELEMENT_SET_NO":999,"REV_AT_EPOCH":1390,"BSTAR":0.0023522,"MEAN_MOTION_DOT":0.00092746,"MEAN_MOTION_DDOT":0},{"OBJECT_NAME":"STARLINK-35255","OBJECT_ID":"2025-207L","EPOCH":"2025-12-04T15:37:31.897632","MEAN_MOTION":15.39376954,"ECCENTRICITY":5.022e-5,"INCLINATION":97.6035,"RA_OF_ASC_NODE":44.0885,"ARG_OF_PERICENTER":94.6363,"MEAN_ANOMALY":265.4939,"EPHEMERIS_TYPE":0,"CLASSIFICATION_TYPE":"U","NORAD_CAT_ID":65602,"ELEMENT_SET_NO":999,"REV_AT_EPOCH":1390,"BSTAR":0.0028487001,"MEAN_MOTION_DOT":0.0011279,"MEAN_MOTION_DDOT":0},{"OBJECT_NAME":"STARLINK-35250","OBJECT_ID":"2025-207M","EPOCH":"2025-12-04T16:48:15.673824","MEAN_MOTION":15.39337118,"ECCENTRICITY":0.000161,"INCLINATION":97.6053,"RA_OF_ASC_NODE":44.1813,"ARG_OF_PERICENTER":83.1554,"MEAN_ANOMALY":276.9874,"EPHEMERIS_TYPE":0,"CLASSIFICATION_TYPE":"U","NORAD_CAT_ID":65603,"ELEMENT_SET_NO":999,"REV_AT_EPOCH":1391,"BSTAR":0.0029763,"MEAN_MOTION_DOT":0.0011777,"MEAN_MOTION_DDOT":0},{"OBJECT_NAME":"STARLINK-35251","OBJECT_ID":"2025-207N","EPOCH":"2025-12-04T03:20:06.893088","MEAN_MOTION":15.3940253,"ECCENTRICITY":0.00019789,"INCLINATION":97.607,"RA_OF_ASC_NODE":43.5402,"ARG_OF_PERICENTER":86.8475,"MEAN_ANOMALY":273.2996,"EPHEMERIS_TYPE":0,"CLASSIFICATION_TYPE":"U","NORAD_CAT_ID":65604,"ELEMENT_SET_NO":999,"REV_AT_EPOCH":1382,"BSTAR":0.0021309689,"MEAN_MOTION_DOT":0.00084107,"MEAN_MOTION_DDOT":0},{"OBJECT_NAME":"STARLINK-35171","OBJECT_ID":"2025-207P","EPOCH":"2025-12-04T15:26:36.633984","MEAN_MOTION":15.3936777,"ECCENTRICITY":9.06e-5,"INCLINATION":97.6037,"RA_OF_ASC_NODE":44.1005,"ARG_OF_PERICENTER":89.9676,"MEAN_ANOMALY":270.1673,"EPHEMERIS_TYPE":0,"CLASSIFICATION_TYPE":"U","NORAD_CAT_ID":65605,"ELEMENT_SET_NO":999,"REV_AT_EPOCH":1374,"BSTAR":0.002048,"MEAN_MOTION_DOT":0.000807,"MEAN_MOTION_DDOT":0},{"OBJECT_NAME":"STARLINK-35195","OBJECT_ID":"2025-207Q","EPOCH":"2025-12-04T16:25:52.153824","MEAN_MOTION":15.3939534,"ECCENTRICITY":0.000229,"INCLINATION":97.606,"RA_OF_ASC_NODE":44.2019,"ARG_OF_PERICENTER":288.7687,"MEAN_ANOMALY":71.3309,"EPHEMERIS_TYPE":0,"CLASSIFICATION_TYPE":"U","NORAD_CAT_ID":65606,"ELEMENT_SET_NO":999,"REV_AT_EPOCH":1391,"BSTAR":0.0028215,"MEAN_MOTION_DOT":0.00111768,"MEAN_MOTION_DDOT":0},{"OBJECT_NAME":"STARLINK-35156","OBJECT_ID":"2025-207R","EPOCH":"2025-12-04T16:34:44.503104","MEAN_MOTION":15.39302614,"ECCENTRICITY":0.0001597,"INCLINATION":97.6051,"RA_OF_ASC_NODE":44.1946,"ARG_OF_PERICENTER":87.888,"MEAN_ANOMALY":272.2548,"EPHEMERIS_TYPE":0,"CLASSIFICATION_TYPE":"U","NORAD_CAT_ID":65607,"ELEMENT_SET_NO":999,"REV_AT_EPOCH":1391,"BSTAR":0.0030788,"MEAN_MOTION_DOT":0.00121756,"MEAN_MOTION_DDOT":0},{"OBJECT_NAME":"STARLINK-35185","OBJECT_ID":"2025-207S","EPOCH":"2025-12-04T15:34:24.760416","MEAN_MOTION":15.39384857,"ECCENTRICITY":0.0001543,"INCLINATION":97.6063,"RA_OF_ASC_NODE":44.0948,"ARG_OF_PERICENTER":68.6094,"MEAN_ANOMALY":291.5316,"EPHEMERIS_TYPE":0,"CLASSIFICATION_TYPE":"U","NORAD_CAT_ID":65608,"ELEMENT_SET_NO":999,"REV_AT_EPOCH":1390,"BSTAR":0.0023039,"MEAN_MOTION_DOT":0.00090965,"MEAN_MOTION_DDOT":0},{"OBJECT_NAME":"STARLINK-35053","OBJECT_ID":"2025-207T","EPOCH":"2025-12-04T16:45:08.288640","MEAN_MOTION":15.39317573,"ECCENTRICITY":0.0001034,"INCLINATION":97.6054,"RA_OF_ASC_NODE":44.1852,"ARG_OF_PERICENTER":81.7817,"MEAN_ANOMALY":278.3545,"EPHEMERIS_TYPE":0,"CLASSIFICATION_TYPE":"U","NORAD_CAT_ID":65609,"ELEMENT_SET_NO":999,"REV_AT_EPOCH":1375,"BSTAR":0.0030303,"MEAN_MOTION_DOT":0.00119864,"MEAN_MOTION_DDOT":0},{"OBJECT_NAME":"STARLINK-35178","OBJECT_ID":"2025-207U","EPOCH":"2025-12-04T15:52:05.621088","MEAN_MOTION":15.39380993,"ECCENTRICITY":0.0002001,"INCLINATION":97.6069,"RA_OF_ASC_NODE":44.0777,"ARG_OF_PERICENTER":97.2853,"MEAN_ANOMALY":262.8619,"EPHEMERIS_TYPE":0,"CLASSIFICATION_TYPE":"U","NORAD_CAT_ID":65610,"ELEMENT_SET_NO":999,"REV_AT_EPOCH":1390,"BSTAR":0.002444,"MEAN_MOTION_DOT":0.00096562,"MEAN_MOTION_DDOT":0},{"OBJECT_NAME":"STARLINK-35186","OBJECT_ID":"2025-207V","EPOCH":"2025-12-04T16:17:03.835104","MEAN_MOTION":15.39357647,"ECCENTRICITY":0.0002607,"INCLINATION":97.6087,"RA_OF_ASC_NODE":44.2167,"ARG_OF_PERICENTER":117.2886,"MEAN_ANOMALY":242.8625,"EPHEMERIS_TYPE":0,"CLASSIFICATION_TYPE":"U","NORAD_CAT_ID":65611,"ELEMENT_SET_NO":999,"REV_AT_EPOCH":1391,"BSTAR":0.0024162,"MEAN_MOTION_DOT":0.00095379,"MEAN_MOTION_DDOT":0},{"OBJECT_NAME":"STARLINK-35154","OBJECT_ID":"2025-207W","EPOCH":"2025-12-04T16:37:51.699072","MEAN_MOTION":15.39323526,"ECCENTRICITY":0.0001455,"INCLINATION":97.6062,"RA_OF_ASC_NODE":44.1917,"ARG_OF_PERICENTER":73.5024,"MEAN_ANOMALY":286.638,"EPHEMERIS_TYPE":0,"CLASSIFICATION_TYPE":"U","NORAD_CAT_ID":65612,"ELEMENT_SET_NO":999,"REV_AT_EPOCH":1375,"BSTAR":0.0025427,"MEAN_MOTION_DOT":0.00100326,"MEAN_MOTION_DDOT":0},{"OBJECT_NAME":"STARLINK-35162","OBJECT_ID":"2025-207X","EPOCH":"2025-12-04T15:24:00.995616","MEAN_MOTION":15.39388131,"ECCENTRICITY":0.0001726,"INCLINATION":97.6059,"RA_OF_ASC_NODE":44.1046,"ARG_OF_PERICENTER":76.0372,"MEAN_ANOMALY":284.1065,"EPHEMERIS_TYPE":0,"CLASSIFICATION_TYPE":"U","NORAD_CAT_ID":65613,"ELEMENT_SET_NO":999,"REV_AT_EPOCH":1390,"BSTAR":0.0027948,"MEAN_MOTION_DOT":0.00110666,"MEAN_MOTION_DDOT":0},{"OBJECT_NAME":"STARLINK-35206","OBJECT_ID":"2025-207Y","EPOCH":"2025-12-04T15:58:51.048768","MEAN_MOTION":15.39387243,"ECCENTRICITY":0.0001684,"INCLINATION":97.6034,"RA_OF_ASC_NODE":44.0686,"ARG_OF_PERICENTER":124.3006,"MEAN_ANOMALY":235.8398,"EPHEMERIS_TYPE":0,"CLASSIFICATION_TYPE":"U","NORAD_CAT_ID":65614,"ELEMENT_SET_NO":999,"REV_AT_EPOCH":1379,"BSTAR":0.0031434,"MEAN_MOTION_DOT":0.00124705,"MEAN_MOTION_DDOT":0},{"OBJECT_NAME":"STARLINK-35174","OBJECT_ID":"2025-207Z","EPOCH":"2025-12-04T16:10:18.125760","MEAN_MOTION":15.39387058,"ECCENTRICITY":0.0001948,"INCLINATION":97.6065,"RA_OF_ASC_NODE":44.0603,"ARG_OF_PERICENTER":80.0352,"MEAN_ANOMALY":280.1112,"EPHEMERIS_TYPE":0,"CLASSIFICATION_TYPE":"U","NORAD_CAT_ID":65615,"ELEMENT_SET_NO":999,"REV_AT_EPOCH":1390,"BSTAR":0.0033837,"MEAN_MOTION_DOT":0.00134415,"MEAN_MOTION_DDOT":0},{"OBJECT_NAME":"STARLINK-35247","OBJECT_ID":"2025-210A","EPOCH":"2025-12-04T13:17:55.675968","MEAN_MOTION":15.30224721,"ECCENTRICITY":0.0001661,"INCLINATION":53.1601,"RA_OF_ASC_NODE":29.1086,"ARG_OF_PERICENTER":80.7338,"MEAN_ANOMALY":279.3851,"EPHEMERIS_TYPE":0,"CLASSIFICATION_TYPE":"U","NORAD_CAT_ID":65622,"ELEMENT_SET_NO":999,"REV_AT_EPOCH":1316,"BSTAR":0.0024792,"MEAN_MOTION_DOT":0.00073856,"MEAN_MOTION_DDOT":0},{"OBJECT_NAME":"STARLINK-35239","OBJECT_ID":"2025-210B","EPOCH":"2025-12-04T10:50:41.129088","MEAN_MOTION":15.30210822,"ECCENTRICITY":0.0001094,"INCLINATION":53.1599,"RA_OF_ASC_NODE":29.1782,"ARG_OF_PERICENTER":77.7162,"MEAN_ANOMALY":282.3961,"EPHEMERIS_TYPE":0,"CLASSIFICATION_TYPE":"U","NORAD_CAT_ID":65623,"ELEMENT_SET_NO":999,"REV_AT_EPOCH":1315,"BSTAR":0.00086443,"MEAN_MOTION_DOT":0.00025339,"MEAN_MOTION_DDOT":0},{"OBJECT_NAME":"STARLINK-35151","OBJECT_ID":"2025-210C","EPOCH":"2025-12-04T10:18:56.079072","MEAN_MOTION":15.30211376,"ECCENTRICITY":0.000121,"INCLINATION":53.1599,"RA_OF_ASC_NODE":29.7486,"ARG_OF_PERICENTER":110.7457,"MEAN_ANOMALY":249.3673,"EPHEMERIS_TYPE":0,"CLASSIFICATION_TYPE":"U","NORAD_CAT_ID":65624,"ELEMENT_SET_NO":999,"REV_AT_EPOCH":1306,"BSTAR":0.0015977,"MEAN_MOTION_DOT":0.00047278,"MEAN_MOTION_DDOT":0},{"OBJECT_NAME":"STARLINK-35153","OBJECT_ID":"2025-210D","EPOCH":"2025-12-04T12:17:09.055104","MEAN_MOTION":15.30178196,"ECCENTRICITY":0.0001343,"INCLINATION":53.1596,"RA_OF_ASC_NODE":28.8406,"ARG_OF_PERICENTER":92.3392,"MEAN_ANOMALY":267.7762,"EPHEMERIS_TYPE":0,"CLASSIFICATION_TYPE":"U","NORAD_CAT_ID":65625,"ELEMENT_SET_NO":999,"REV_AT_EPOCH":1308,"BSTAR":0.0017748,"MEAN_MOTION_DOT":0.00052541,"MEAN_MOTION_DDOT":0},{"OBJECT_NAME":"STARLINK-35225","OBJECT_ID":"2025-210E","EPOCH":"2025-12-04T12:49:03.325728","MEAN_MOTION":15.3023237,"ECCENTRICITY":0.0001467,"INCLINATION":53.1619,"RA_OF_ASC_NODE":28.9783,"ARG_OF_PERICENTER":83.8291,"MEAN_ANOMALY":276.2876,"EPHEMERIS_TYPE":0,"CLASSIFICATION_TYPE":"U","NORAD_CAT_ID":65626,"ELEMENT_SET_NO":999,"REV_AT_EPOCH":1316,"BSTAR":0.0023591,"MEAN_MOTION_DOT":0.00070244,"MEAN_MOTION_DDOT":0},{"OBJECT_NAME":"STARLINK-35217","OBJECT_ID":"2025-210F","EPOCH":"2025-12-04T10:29:34.428192","MEAN_MOTION":15.30233178,"ECCENTRICITY":0.0001186,"INCLINATION":53.1596,"RA_OF_ASC_NODE":29.7974,"ARG_OF_PERICENTER":76.2103,"MEAN_ANOMALY":283.903,"EPHEMERIS_TYPE":0,"CLASSIFICATION_TYPE":"U","NORAD_CAT_ID":65627,"ELEMENT_SET_NO":999,"REV_AT_EPOCH":1314,"BSTAR":0.00089453,"MEAN_MOTION_DOT":0.00026255,"MEAN_MOTION_DDOT":0},{"OBJECT_NAME":"STARLINK-35128","OBJECT_ID":"2025-210G","EPOCH":"2025-12-04T13:02:43.279008","MEAN_MOTION":15.30168658,"ECCENTRICITY":0.0002114,"INCLINATION":53.1613,"RA_OF_ASC_NODE":29.0411,"ARG_OF_PERICENTER":83.867,"MEAN_ANOMALY":276.2571,"EPHEMERIS_TYPE":0,"CLASSIFICATION_TYPE":"U","NORAD_CAT_ID":65628,"ELEMENT_SET_NO":999,"REV_AT_EPOCH":1316,"BSTAR":0.0013863,"MEAN_MOTION_DOT":0.00040885,"MEAN_MOTION_DDOT":0}]
